{
"type": "FeatureCollection",
"name": "memorials",
"crs": { "type": "name", "properties": { "name": "urn:ogc:def:crs:OGC:1.3:CRS84" } },
"features": [
{"type":"Feature","properties":{"name":"Польським легіонерам"},"geometry":{"type":"Point","coordinates":[30.500180527199518,50.416907949688195]}},
{"type":"Feature","properties":{"name":"Меморіал ассирійцям"},"geometry":{"type":"Point","coordinates":[30.509022387300561,50.417759129200249]}},
{"type":"Feature","properties":{"name":"Католицькі ворота"},"geometry":{"type":"Point","coordinates":[30.510231427663999,50.416516179559245]}},
{"type":"Feature","properties":{"name":"Лютеранські ворота"},"geometry":{"type":"Point","coordinates":[30.508614921431615,50.416128084642367]}},
{"type":"Feature","properties":{"name":"Православні ворота"},"geometry":{"type":"Point","coordinates":[30.511020350666136,50.416706802798338]}},
{"type":"Feature","properties":{"name":"Вознесенська церква"},"geometry":{"type":"Point","coordinates":[30.510018290601142,50.4184503372311]}},
{"type":"Feature","properties":{"name":"Крематорій"},"geometry":{"type":"Point","coordinates":[30.502279424189293,50.415188715096512]}}
]
}
