{
"type": "FeatureCollection",
"name": "sections-01",
"crs": { "type": "name", "properties": { "name": "urn:ogc:def:crs:OGC:1.3:CRS84" } },
"features": [
{"type":"Feature","properties":{"id":30,"section_nu":"30"},"geometry":{"type":"MultiPolygon","coordinates":[[[[30.511193283144809,50.416749850748268],[30.511072014300328,50.417193390716541],[30.511642338398946,50.417320160213535],[30.511876311543222,50.41694257457106],[30.511193283144809,50.416749850748268]]]]}},
{"type":"Feature","properties":{"id":4,"section_nu":"4"},"geometry":{"type":"MultiPolygon","coordinates":[[[[30.511072014300328,50.417207476232953],[30.510948223023114,50.418010343745536],[30.511315175737725,50.417959636726266],[30.511629075047814,50.417331428596839],[30.511072014300328,50.417207476232953]]]]}},
{"type":"Feature","properties":{"id":2,"section_nu":"2"},"geometry":{"type":"MultiPolygon","coordinates":[[[[30.511009450451155,50.416709057868985],[30.511187944505586,50.416748699968487],[30.510991425771195,50.41740505770246],[30.51092169632086,50.418013160800569],[30.510121474135985,50.418125842864562],[30.511009450451155,50.416709057868985]]]]}},
{"type":"Feature","properties":{"id":16,"section_nu":"16"},"geometry":{"type":"MultiPolygon","coordinates":[[[[30.511328439088857,50.417954002609669],[30.511850130899987,50.41698774169987],[30.511996789626874,50.417829396843686],[30.511328439088857,50.417954002609669]]]]}},
{"type":"Feature","properties":{"id":26,"section_nu":"26"},"geometry":{"type":"MultiPolygon","coordinates":[[[[30.512002828985064,50.417828365726002],[30.511856850122943,50.416980955981465],[30.511883969142573,50.41694539168958],[30.512204128784898,50.417037150210362],[30.511965620833529,50.41742433181804],[30.512840461117726,50.417635673933091],[30.512800671064348,50.417725820324094],[30.512002828985064,50.417828365726002]]]]}},
{"type":"Feature","properties":{"id":32,"section_nu":"32"},"geometry":{"type":"MultiPolygon","coordinates":[[[[30.513313520641386,50.417821600676596],[30.513605314366263,50.417407490114101],[30.513950161495654,50.417508905280464],[30.514038583836527,50.417582149432249],[30.514025320485395,50.417669478849831],[30.513729105643481,50.4179258320166],[30.513313520641386,50.417821600676596]]]]}},
{"type":"Feature","properties":{"id":1,"section_nu":"1"},"geometry":{"type":"MultiPolygon","coordinates":[[[[30.510059578497373,50.418134294008546],[30.509869470464501,50.418137111056218],[30.50967936243163,50.418049782500766],[30.509532735095533,50.41787682761634],[30.510338342058159,50.416536983114774],[30.510986477653116,50.416700606470719],[30.510059578497373,50.418134294008546]]]]}},
{"type":"Feature","properties":{"id":7,"section_nu":"7"},"geometry":{"type":"MultiPolygon","coordinates":[[[[30.509128933359708,50.418641359888952],[30.509531255010671,50.417948368492389],[30.509628519585636,50.418077953020109],[30.509823048735548,50.418168098569446],[30.510030841236588,50.418173732660584],[30.50969925745833,50.418714602289675],[30.509128933359708,50.418641359888952]]]]}},
{"type":"Feature","properties":{"id":6,"section_nu":"6"},"geometry":{"type":"MultiPolygon","coordinates":[[[[30.510091142521013,50.418158160683973],[30.509736120349991,50.418725264314581],[30.510855730448288,50.418658712159463],[30.510945201513323,50.418026119792174],[30.510091142521013,50.418158160683973]]]]}},
{"type":"Feature","properties":{"id":8,"section_nu":"8"},"geometry":{"type":"MultiPolygon","coordinates":[[[[30.509294081441944,50.419462758306878],[30.509733273322343,50.41872575038694],[30.510861908136672,50.418662518172894],[30.510535644771913,50.41947940437273],[30.509294081441944,50.419462758306878]]]]}},
{"type":"Feature","properties":{"id":12,"section_nu":"12"},"geometry":{"type":"MultiPolygon","coordinates":[[[[30.510539269696594,50.419482232176165],[30.511264332891727,50.419504767911477],[30.511414650871206,50.419428709761867],[30.51143675645643,50.418823057175082],[30.511554963642844,50.418298698429346],[30.51162250546782,50.417918719244732],[30.510952207478258,50.418026355757142],[30.510866432357815,50.418668121548507],[30.510539269696594,50.419482232176165]]]]}},
{"type":"Feature","properties":{"id":81,"section_nu":"8a"},"geometry":{"type":"MultiPolygon","coordinates":[[[[30.509062616604051,50.41994702954689],[30.50929249030662,50.419464514279547],[30.51125991177468,50.419516035775118],[30.511282017359903,50.419783646748556],[30.511503073212079,50.419896324600828],[30.511794866936949,50.41996674812237],[30.5115561266166,50.42023999039472],[30.509062616604051,50.41994702954689]]]]}},
{"type":"Feature","properties":{"id":82,"section_nu":"8a"},"geometry":{"type":"MultiPolygon","coordinates":[[[[30.508844595813176,50.420288134767986],[30.511007089088753,50.420850553798772],[30.511551705499556,50.420245624239413],[30.509067037721088,50.419949846486759],[30.508844595813176,50.420288134767986]]]]}},
{"type":"Feature","properties":{"id":42,"section_nu":"42"},"geometry":{"type":"MultiPolygon","coordinates":[[[[30.508819046136111,50.420311019104496],[30.511002920750972,50.420855153830232],[30.510811994842623,50.421097722289808],[30.510478845894362,50.421412254532321],[30.510296108259197,50.421349844863364],[30.510023281375371,50.421569739622178],[30.50915566051307,50.421416184173296],[30.507784913778476,50.421344211149993],[30.507750955046561,50.42126132699925],[30.50801579413222,50.42094781489903],[30.508655922511302,50.420496350034995],[30.508819046136111,50.420311019104496]]]]}},
{"type":"Feature","properties":{"id":421,"section_nu":"42a"},"geometry":{"type":"MultiPolygon","coordinates":[[[[30.508315447823698,50.422231512745078],[30.508403870164564,50.422161092590855],[30.508633768250828,50.422152642165301],[30.508987457614314,50.421972366061198],[30.509173144530134,50.42143153363174],[30.507784913778476,50.421347028006764],[30.508085549737434,50.421755470464035],[30.508346395642992,50.421904762345257],[30.508448081335001,50.421961098781921],[30.508456923569085,50.422034336049386],[30.508434817983865,50.422132924499842],[30.50842155463274,50.422155458973997],[30.508315447823698,50.422231512745078]]]]}},
{"type":"Feature","properties":{"id":521,"section_nu":"52a"},"geometry":{"type":"MultiPolygon","coordinates":[[[[30.50725216917473,50.422237146352892],[30.507402487154209,50.422034336049386],[30.507521857314384,50.421772371455333],[30.507650069708642,50.421490687479505],[30.507729649815431,50.421301958278455],[30.508030285774389,50.421747019966105],[30.508260183860653,50.421901945521668],[30.508401659606047,50.421972366061198],[30.508388396254912,50.422135741309681],[30.508277868328822,50.422208978307111],[30.508021443540294,50.422287848793061],[30.507756176517692,50.422332917583212],[30.507641227474558,50.422332917583212],[30.50725216917473,50.422237146352892]]]]}},
{"type":"Feature","properties":{"id":46,"section_nu":"46"},"geometry":{"type":"MultiPolygon","coordinates":[[[[30.508001095408396,50.420905607714403],[30.506140258238283,50.420296328811567],[30.506692897868717,50.420014636057232],[30.507020060529946,50.419797731494747],[30.507249958616207,50.419828717921639],[30.508032496332913,50.42006815780946],[30.508797349581435,50.420296328811567],[30.508616213760796,50.420481742861099],[30.508001095408396,50.420905607714403]]]]}},
{"type":"Feature","properties":{"id":50,"section_nu":"50"},"geometry":{"type":"MultiPolygon","coordinates":[[[[30.506096047067849,50.420310413405311],[30.505304667117056,50.4206766113725],[30.506374577441591,50.421268155954081],[30.506816689145943,50.421521672798846],[30.507254379733254,50.421662514904035],[30.507484277819508,50.421752653631557],[30.507656701384203,50.42135266171978],[30.507718597022823,50.421217452422297],[30.507824703831865,50.421090693355353],[30.507975021811347,50.420938582027198],[30.506096047067849,50.420310413405311]]]]}},
{"type":"Feature","properties":{"id":52,"section_nu":"52"},"geometry":{"type":"MultiPolygon","coordinates":[[[[30.505958992439478,50.421969549241645],[30.505010662833655,50.421510405412334],[30.505395300016449,50.421318859431601],[30.506009835285493,50.421082242738827],[30.506920585396465,50.421583643376735],[30.507462172234273,50.421783638779537],[30.507400276595668,50.421918846460713],[30.507241116382097,50.422200527890126],[30.507002376061745,50.42227376478737],[30.506569106591481,50.422116023637209],[30.505958992439478,50.421969549241645]]]]}},
{"type":"Feature","properties":{"id":31,"section_nu":"31"},"geometry":{"type":"MultiPolygon","coordinates":[[[[30.504984136131402,50.421518855952471],[30.504824975917838,50.42143153363174],[30.504338653043039,50.421161115101093],[30.504851502620092,50.420941398908091],[30.505284772090363,50.420701963434666],[30.505996571934372,50.421082242738827],[30.504984136131402,50.421518855952471]]]]}},
{"type":"Feature","properties":{"id":29,"section_nu":"29"},"geometry":{"type":"MultiPolygon","coordinates":[[[[30.504334231926002,50.421161115101093],[30.503852330168254,50.420820272878693],[30.504736553576965,50.420361117908094],[30.505302456558539,50.420682245165246],[30.504334231926002,50.421161115101093]]]]}},
{"type":"Feature","properties":{"id":28,"section_nu":"28"},"geometry":{"type":"MultiPolygon","coordinates":[[[[30.503839066817129,50.420828723541959],[30.503043265749294,50.421172382570688],[30.503379270644601,50.421558291786489],[30.503644537667206,50.422034336049386],[30.504175071712428,50.421848425841581],[30.504829397034875,50.421445617887905],[30.503839066817129,50.420828723541959]]]]}},
{"type":"Feature","properties":{"id":46,"section_nu":"46"},"geometry":{"type":"MultiPolygon","coordinates":[[[[30.50610046818489,50.420304779568291],[30.505755621055496,50.420192102687707],[30.505256034829578,50.420087876334513],[30.50567604094871,50.419932944845094],[30.506215417228017,50.419865338218166],[30.506931638189073,50.419825900974566],[30.50610046818489,50.420304779568291]]]]}},
{"type":"Feature","properties":{"id":21,"section_nu":"21"},"geometry":{"type":"MultiPolygon","coordinates":[[[[30.504747606369573,50.420355484077128],[30.505251613712534,50.420099144059428],[30.50576004217254,50.420200553463062],[30.506047414780369,50.420304779568291],[30.50528698264888,50.420659709990147],[30.504747606369573,50.420355484077128]]]]}},
{"type":"Feature","properties":{"id":44,"section_nu":"44"},"geometry":{"type":"MultiPolygon","coordinates":[[[[30.503032212956686,50.421161115101093],[30.502559153433019,50.4206766113725],[30.503390323437209,50.420279427293529],[30.503832435141561,50.420042805408038],[30.504278967962957,50.41988223988394],[30.504500023815126,50.41975266029219],[30.504937714402441,50.419978015876111],[30.505242771478446,50.420087876334513],[30.504411601474267,50.420510414184427],[30.503832435141561,50.420814639102339],[30.503032212956686,50.421161115101093]]]]}},
{"type":"Feature","properties":{"id":271,"section_nu":"27a"},"geometry":{"type":"MultiPolygon","coordinates":[[[[30.504192756180611,50.418947005311473],[30.503651097320965,50.419252198232066],[30.503155552527083,50.419382169171278],[30.502672636240497,50.419588345825851],[30.502795622567977,50.419880796013132],[30.504506655490701,50.419265325175651],[30.505832990603761,50.418865312258035],[30.506390051351243,50.418696291700144],[30.506168995499067,50.418518819465241],[30.505382036665313,50.418096263848724],[30.504192756180611,50.418947005311473]]]]}},
{"type":"Feature","properties":{"id":91,"section_nu":"9a"},"geometry":{"type":"MultiPolygon","coordinates":[[[[30.506436473080196,50.419851253492077],[30.507709754788724,50.419037149206943],[30.507855651651166,50.419076587107277],[30.508010390747692,50.419073770115482],[30.508063444152214,50.419068136131386],[30.508028075215869,50.419563924165658],[30.507992706279524,50.420042805408038],[30.507594805745597,50.419899141543702],[30.507196905211686,50.419797731494747],[30.506997954944723,50.419783646748556],[30.506913953720897,50.419820267079942],[30.506436473080196,50.419851253492077]]]]}},
{"type":"Feature","properties":{"id":19,"section_nu":"19"},"geometry":{"type":"MultiPolygon","coordinates":[[[[30.506401104143851,50.418696291700144],[30.50700237606177,50.418501917312959],[30.50751964675586,50.418341346565427],[30.50763459579899,50.41844275973245],[30.507643438033075,50.418620232252323],[30.507603647979689,50.418783619063689],[30.507616911330821,50.418918835308958],[30.507687649203518,50.419028698224047],[30.507249958616207,50.419313213819649],[30.506423209729064,50.419851253492077],[30.506016466961057,50.419885056827667],[30.505631829778274,50.419932944845094],[30.505247192595494,50.420073791674582],[30.504950977753573,50.419978015876111],[30.504500023815126,50.41975266029219],[30.504619393975315,50.419625897305053],[30.504959819987658,50.419482232176179],[30.505008452275142,50.419442794613602],[30.505450563979494,50.419338566611579],[30.505985519141763,50.419189266641546],[30.506303839568893,50.419087855072767],[30.506507210952893,50.418986443286848],[30.506524895421069,50.418873763270099],[30.506401104143851,50.418696291700144]]]]}},
{"type":"Feature","properties":{"id":431,"section_nu":"43a"},"geometry":{"type":"MultiPolygon","coordinates":[[[[30.508808402374051,50.420282244213624],[30.508233657158392,50.420107594851352],[30.50864924216048,50.419403357018197],[30.508887982480832,50.419392089127761],[30.508941035885353,50.419335749635373],[30.509307988599964,50.419394906100614],[30.509033879343267,50.419961114244501],[30.508808402374051,50.420282244213624]]]]}},
{"type":"Feature","properties":{"id":43,"section_nu":"43"},"geometry":{"type":"MultiPolygon","coordinates":[[[[30.508653663277517,50.419392089127761],[30.509126722801174,50.418648402432417],[30.509701468016839,50.418721644822256],[30.509316830834052,50.419392089127761],[30.508949878119438,50.419327298705724],[30.508879140246748,50.419383638208167],[30.508653663277517,50.419392089127761]]]]}},
{"type":"Feature","properties":{"id":9,"section_nu":"9"},"geometry":{"type":"MultiPolygon","coordinates":[[[[30.50799491683804,50.420048439276201],[30.508215972690216,50.420104777920884],[30.508666926628649,50.41936110241523],[30.509135565035265,50.418611781195004],[30.509498096632832,50.417958228197172],[30.509453885462396,50.417851179863959],[30.509312409717012,50.417772301989935],[30.509135565035265,50.417749765430401],[30.508994089289875,50.417777936128161],[30.508790717905875,50.418042739868319],[30.508551977585515,50.418527270539123],[30.508313237265174,50.418932920312294],[30.50819828822204,50.419062502146637],[30.508074496944822,50.419073770115482],[30.50799491683804,50.420048439276201]]]]}},
{"type":"Feature","properties":{"id":17,"section_nu":"17"},"geometry":{"type":"MultiPolygon","coordinates":[[[[30.50751743619734,50.418335712494212],[30.507393644920114,50.418256835427037],[30.508109865881174,50.417789204402581],[30.508065654710737,50.418290639900498],[30.507915336731251,50.41888221428065],[30.507879967794899,50.419056868161213],[30.507676596410903,50.419017430244473],[30.507614700772297,50.41884841022938],[30.507685438644994,50.418623049271083],[30.507667754176818,50.41844275973245],[30.50751743619734,50.418335712494212]]]]}},
{"type":"Feature","properties":{"id":15,"section_nu":"15"},"geometry":{"type":"MultiPolygon","coordinates":[[[[30.508127550349343,50.417777936128161],[30.50837513290378,50.417710326425365],[30.508666926628649,50.417699058132193],[30.508976404821695,50.417727228860109],[30.508755348969522,50.418014569328022],[30.508525450883262,50.41844275973245],[30.508322079499258,50.41884277621849],[30.508180603753864,50.419045600188355],[30.50793302119942,50.419062502146637],[30.508074496944822,50.418318810276602],[30.508127550349343,50.417777936128161]]]]}},
{"type":"Feature","properties":{"id":10,"section_nu":"10"},"geometry":{"type":"MultiPolygon","coordinates":[[[[30.51162877408963,50.417920217396855],[30.512024231707272,50.417855616304848],[30.511906868864617,50.418447281882493],[30.511753391139145,50.419208937034185],[30.511735086557696,50.419308815571739],[30.511415212099756,50.419433420380152],[30.511439051892246,50.418833430690512],[30.51162877408963,50.417920217396855]]]]}},
{"type":"Feature","properties":{"id":18,"section_nu":"18"},"geometry":{"type":"MultiPolygon","coordinates":[[[[30.512024994566037,50.417857430384807],[30.51262907357652,50.417762235572283],[30.512424876115652,50.418341346565427],[30.512336453774772,50.41881460615398],[30.512325446100437,50.418854278255225],[30.511735447316315,50.419308865855264],[30.512024994566037,50.417857430384807]]]]}},
{"type":"Feature","properties":{"id":24,"section_nu":"24"},"geometry":{"type":"MultiPolygon","coordinates":[[[[30.512328572353777,50.418850828085937],[30.512919436902251,50.418397373155734],[30.513201339018334,50.418180629813975],[30.513505779664992,50.417971407396152],[30.513619014782403,50.418030954712357],[30.513714206246568,50.417945617791119],[30.513278862292278,50.41783425728088],[30.512854415319506,50.417756181144192],[30.512632683462936,50.417763563573622],[30.512424644597751,50.418346407709514],[30.512328572353777,50.418850828085937]]]]}},
{"type":"Feature","properties":{"id":11,"section_nu":"11"},"geometry":{"type":"MultiPolygon","coordinates":[[[[30.509533465569184,50.417879350501416],[30.510293897700667,50.416606020953047],[30.510214317593885,50.416594752397181],[30.509170933971618,50.416893368222141],[30.508958720353522,50.417693423984581],[30.508994089289875,50.417738497146587],[30.509232829610223,50.417721594715864],[30.509436200994223,50.417794838538775],[30.509533465569184,50.417879350501416]]]]}},
{"type":"Feature","properties":{"id":27,"section_nu":"27"},"geometry":{"type":"MultiPolygon","coordinates":[[[[30.505417405601666,50.418082178596592],[30.50605404645593,50.418420223491886],[30.506336997946715,50.418611781195004],[30.506407735819412,50.418679389611164],[30.507451119441686,50.418346980635945],[30.507389223803074,50.418245567263867],[30.50743343497351,50.4174060815686],[30.505417405601666,50.418082178596592]]]]}},
{"type":"Feature","properties":{"id":13,"section_nu":"13"},"geometry":{"type":"MultiPolygon","coordinates":[[[[30.507402487154199,50.418223030929468],[30.507437856090551,50.4174060815686],[30.507941863433516,50.41701732140794],[30.508269026094737,50.416769414711993],[30.508578504287783,50.41668490076912],[30.508260183860653,50.417710326425365],[30.507977232369857,50.417834277473453],[30.507614700772297,50.418076544494546],[30.507402487154199,50.418223030929468]]]]}},
{"type":"Feature","properties":{"id":6,"section_nu":"6"},"geometry":{"type":"MultiPolygon","coordinates":[[[[30.508109865881174,50.416853928504089],[30.507163746833857,50.416465163811971],[30.507552805133685,50.416324306252079],[30.507694280879079,50.416189082600518],[30.508392817371949,50.416690535036672],[30.508109865881174,50.416853928504089]]]]}},
{"type":"Feature","properties":{"id":7,"section_nu":"7"},"geometry":{"type":"MultiPolygon","coordinates":[[[[30.507729649815424,50.416200351252904],[30.507800387688121,50.415997515100052],[30.508870298012649,50.416256694474548],[30.508719980033177,50.41680885450041],[30.508419344074216,50.416707437835292],[30.507729649815424,50.416200351252904]]]]}},
{"type":"Feature","properties":{"id":4,"section_nu":"4"},"geometry":{"type":"MultiPolygon","coordinates":[[[[30.508105444764126,50.41687083124441],[30.507389223803074,50.417383544834813],[30.506398893585327,50.417721594715864],[30.505382036665313,50.418082178596592],[30.504824975917824,50.417727228860109],[30.50452433995887,50.417524399245082],[30.504497813256606,50.4174060815686],[30.504718869108789,50.417191982164681],[30.505399721133482,50.416955344855587],[30.505956781880972,50.416797585992782],[30.506690687310197,50.416583483838629],[30.507106272312289,50.416465163811971],[30.508105444764126,50.41687083124441]]]]}},
{"type":"Feature","properties":{"id":5,"section_nu":"5"},"geometry":{"type":"MultiPolygon","coordinates":[[[[30.506796794119246,50.416527141005652],[30.50632815571263,50.416098933285035],[30.506991323269148,50.415952440281494],[30.507318485930384,50.415817215568438],[30.507716386464288,50.415918634139409],[30.507716386464288,50.416121470629982],[30.507548384016637,50.416290500375382],[30.506796794119246,50.416527141005652]]]]}},
{"type":"Feature","properties":{"id":20,"section_nu":"20"},"geometry":{"type":"MultiPolygon","coordinates":[[[[30.506292786776278,50.416115836294757],[30.505779937199232,50.416200351252904],[30.505558881347049,50.416436992333509],[30.505947939646887,50.416791951737963],[30.50677910965107,50.416538409577605],[30.506292786776278,50.416115836294757]]]]}},
{"type":"Feature","properties":{"id":31,"section_nu":"3a"},"geometry":{"type":"MultiPolygon","coordinates":[[[[30.505514670176623,50.416453895222595],[30.505169823047229,50.416617289506256],[30.504992978365486,50.416645460877511],[30.504692342406528,50.416893368222141],[30.50456855112931,50.417113103193003],[30.504648131236092,50.41722578739806],[30.505081400706356,50.417045492541291],[30.505488143474356,50.416910270948392],[30.505912570710535,50.416791951737963],[30.505514670176623,50.416453895222595]]]]}},
{"type":"Feature","properties":{"id":3,"section_nu":"3"},"geometry":{"type":"MultiPolygon","coordinates":[[[[30.504497813256606,50.417101834757752],[30.504214861765828,50.41738917901926],[30.504091070488609,50.417546935911872],[30.50411759719087,50.418104714997988],[30.504480128788433,50.418121617292002],[30.504745395811049,50.418099080898649],[30.50506371623818,50.417930057606632],[30.504763080279218,50.417755399571291],[30.50452433995887,50.417608911690238],[30.504462444320264,50.417468057531245],[30.504550866661134,50.417299031987611],[30.504621604533831,50.417248324206902],[30.504497813256606,50.417101834757752]]]]}},
{"type":"Feature","properties":{"id":26,"section_nu":"26"},"geometry":{"type":"MultiPolygon","coordinates":[[[[30.504104333839738,50.418127251388675],[30.503839066817125,50.418639951380143],[30.503361586176425,50.419282227055533],[30.503547273092249,50.419265325175644],[30.503927489157999,50.419079404098881],[30.504148545010175,50.418955456308957],[30.504599498948608,50.418623049271083],[30.505068137355224,50.418307542128169],[30.505368773314189,50.418099080898649],[30.505094664057477,50.417935691726093],[30.504794028098527,50.418127251388675],[30.504104333839738,50.418127251388675]]]]}},
{"type":"Feature","properties":{"id":33,"section_nu":"33"},"geometry":{"type":"MultiPolygon","coordinates":[[[[30.504068964903386,50.417479325879377],[30.503724117773995,50.417541301746198],[30.50326432160147,50.417473691705638],[30.502981370110675,50.417276495202884],[30.50276915649259,50.417073663657888],[30.502477362767721,50.416994784489184],[30.502052935531541,50.417107468975708],[30.501646192763538,50.417315934569103],[30.500850391695703,50.41762018000486],[30.500549755736742,50.417766667851069],[30.500885760632055,50.417794838538775],[30.501212923293277,50.418104714997988],[30.501902617552062,50.418769534015937],[30.502335887022326,50.419158279796342],[30.50265420744946,50.419552656313407],[30.503016739047027,50.419400540045828],[30.503335059474164,50.419293494972102],[30.503777171178516,50.41866248751618],[30.50407780713747,50.418115983194674],[30.504068964903386,50.417479325879377]]]]}},
{"type":"Feature","properties":{"id":39,"section_nu":"39"},"geometry":{"type":"MultiPolygon","coordinates":[[[[30.502565785108583,50.420656893092534],[30.50186724861571,50.419975198937919],[30.502052935531541,50.41990759237131],[30.502574627342678,50.419952663426429],[30.502760314258506,50.41990759237131],[30.503299690537819,50.419738575532584],[30.504475707671396,50.419282227055533],[30.506367945766019,50.418730095859956],[30.506474052575072,50.418893482292376],[30.506474052575072,50.418989260283837],[30.505810885018533,50.419237155362438],[30.505094664057477,50.419394906100614],[30.504608341182692,50.419620263386641],[30.504343074160087,50.419839985708201],[30.502565785108583,50.420656893092534]]]]}},
{"type":"Feature","properties":{"id":47,"section_nu":"47"},"geometry":{"type":"MultiPolygon","coordinates":[[[[30.500540913502658,50.417772301989935],[30.500319857650481,50.417935691726093],[30.500903445100224,50.418420223491886],[30.501610823827189,50.419141377872243],[30.502044093297457,50.419563924165658],[30.502450836065453,50.419845619600473],[30.502574627342678,50.419935761785787],[30.502760314258506,50.419885056827667],[30.502627680747199,50.419575192015209],[30.502300518085981,50.419147011847606],[30.501690403933974,50.418600513116274],[30.501212923293277,50.418132885484667],[30.500876918397957,50.417823009209755],[30.500540913502658,50.417772301989935]]]]}},
{"type":"Feature","properties":{"id":48,"section_nu":"48"},"geometry":{"type":"MultiPolygon","coordinates":[[[[30.500315436533437,50.417955411138891],[30.500036906159693,50.418262469507624],[30.500991867441098,50.419121658953145],[30.50137208350684,50.418916018307797],[30.500921129568393,50.418454027848725],[30.500315436533437,50.417955411138891]]]]}},
{"type":"Feature","properties":{"id":472,"section_nu":"47"},"geometry":{"type":"MultiPolygon","coordinates":[[[[30.500989656882574,50.419132926907913],[30.501829669120834,50.419947029546897],[30.502015356036672,50.419896324600828],[30.502209885186591,50.419910409313516],[30.502563574550067,50.419944212606872],[30.502426519921723,50.419839985708201],[30.502041882738933,50.419569558090764],[30.501719141194751,50.419265325175651],[30.501378715182401,50.418927286311472],[30.500989656882574,50.419132926907913]]]]}},
{"type":"Feature","properties":{"id":491,"section_nu":"49a"},"geometry":{"type":"MultiPolygon","coordinates":[[[[30.502086093909366,50.417031406976712],[30.501453874172139,50.417327202953423],[30.501139974862049,50.417124371625576],[30.50150692757666,50.416786317482469],[30.501493664225531,50.416698986436714],[30.501312398426744,50.416583483838629],[30.501250502788139,50.416569398136673],[30.501723562311792,50.416191899763852],[30.501931354812839,50.416484883836958],[30.502037461621882,50.416735609152944],[30.502086093909366,50.417031406976712]]]]}},
{"type":"Feature","properties":{"id":492,"section_nu":"49б"},"geometry":{"type":"MultiPolygon","coordinates":[[[[30.501414084118746,50.417341288430059],[30.500467965071433,50.417744131288828],[30.500529860710039,50.417428618291673],[30.500746495445171,50.417104651866808],[30.50101176246778,50.416811671626895],[30.501259345022223,50.416583483838629],[30.501383136299442,50.416651095149739],[30.501480400874392,50.416741243414457],[30.501480400874392,50.416786317482469],[30.501135553745005,50.417135640055456],[30.501436189703956,50.417335654239913],[30.501414084118746,50.417341288430059]]]]}},
{"type":"Feature","properties":{"id":49,"section_nu":"49"},"geometry":{"type":"MultiPolygon","coordinates":[[[[30.500569650763431,50.417327202953423],[30.500392806081695,50.416865196998316],[30.501365451831266,50.416448260926899],[30.500817233317875,50.417000418719887],[30.500569650763431,50.417327202953423]]]]}},
{"type":"Feature","properties":{"id":471,"section_nu":"47a"},"geometry":{"type":"MultiPolygon","coordinates":[[[[30.501725772870316,50.416186265437005],[30.501248292229615,50.415749603067162],[30.500452491161777,50.41613555646515],[30.499868903712034,50.416352477797545],[30.499059839293064,50.416594752397181],[30.498653096525068,50.416766597582978],[30.499258789560024,50.417473691705652],[30.500014800574462,50.418217396844199],[30.500434806693598,50.417772301989935],[30.500461333395869,50.417518765076721],[30.50055859797083,50.417338471335079],[30.500386174406128,50.416862379875013],[30.500850391695689,50.416665180827422],[30.501358820155705,50.416451078074843],[30.501451663613615,50.416403186537224],[30.501725772870316,50.416186265437005]]]]}},
{"type":"Feature","properties":{"id":51,"section_nu":"51"},"geometry":{"type":"MultiPolygon","coordinates":[[[[30.498635412056892,50.416746877675315],[30.498679623227329,50.416093298947132],[30.49918363057029,50.415507324145153],[30.5002004874903,50.414746672966196],[30.500492281215163,50.415039665977602],[30.500854812812744,50.415315753887761],[30.501217344410303,50.415755237445957],[30.500456912278825,50.41614400796422],[30.498635412056892,50.416746877675315]]]]}},
{"type":"Feature","properties":{"id":1,"section_nu":"ст.н"},"geometry":{"type":"MultiPolygon","coordinates":[[[[30.508666926628642,50.415963708990148],[30.509281461897686,50.416115836294772],[30.509931366103093,50.415493238123219],[30.510285055466568,50.41507065551707],[30.510585691425529,50.414808652408183],[30.510797905043621,50.414611444811314],[30.511164857758232,50.41450720617847],[30.511072014300314,50.414453678142742],[30.510382320041529,50.414693145201056],[30.509577676739607,50.415310119456699],[30.509091353864822,50.415698893627876],[30.508666926628642,50.415963708990148]]]]}},
{"type":"Feature","properties":{"id":2,"section_nu":"ст.п"},"geometry":{"type":"MultiPolygon","coordinates":[[[[30.511160436641187,50.414510023441814],[30.511593706111451,50.41450720617847],[30.511867815368156,50.414667789922738],[30.511235595630932,50.415665087304873],[30.510674113766402,50.416456712370213],[30.509272619663601,50.416118653462476],[30.50995789280535,50.41548760371326],[30.510311582168836,50.415062203826494],[30.510802326160661,50.414622713838952],[30.511160436641187,50.414510023441814]]]]}},
{"type":"Feature","properties":{"id":3,"section_nu":"1 ст."},"geometry":{"type":"MultiPolygon","coordinates":[[[[30.510671903207879,50.416459529517638],[30.511821393639192,50.416741243414457],[30.512183925236755,50.416177813945481],[30.512351927684417,50.415648184134334],[30.512723301516075,50.41489880417906],[30.511900973745981,50.414662155414639],[30.510671903207879,50.416459529517638]]]]}},
{"type":"Feature","properties":{"id":4,"section_nu":"3 ст."},"geometry":{"type":"MultiPolygon","coordinates":[[[[30.51210434512998,50.41635247779756],[30.512537614600244,50.41661165523],[30.512758670452421,50.416662363692225],[30.513899318649653,50.415157989564698],[30.51273214375016,50.414910073138358],[30.512387296620766,50.415648184134334],[30.51210434512998,50.41635247779756]]]]}},
{"type":"Feature","properties":{"id":5,"section_nu":"4 ст."},"geometry":{"type":"MultiPolygon","coordinates":[[[[30.51392584535191,50.415169258462328],[30.514845437696962,50.415591840188924],[30.513970056522346,50.417253958407457],[30.5129797263046,50.417062395213271],[30.511830235873283,50.416752511935485],[30.512077818427713,50.416380649326314],[30.512776354920597,50.416690535036679],[30.51392584535191,50.415169258462328]]]]}},
{"type":"Feature","properties":{"id":6,"section_nu":"2 ст."},"geometry":{"type":"MultiPolygon","coordinates":[[[[30.512714459281977,50.414881900735097],[30.513015095240945,50.414374794611447],[30.513351100136255,50.414239565395043],[30.513987740990522,50.41395220202854],[30.514412168226698,50.413828240822504],[30.514801226526526,50.41384514464243],[30.515384813976269,50.413653567663488],[30.515800398978364,50.413523971032568],[30.515756187807927,50.413315488752012],[30.515570500892103,50.413276046055195],[30.514871964399219,50.413636663775208],[30.513908160883737,50.413619759880909],[30.513032779709114,50.413800067775909],[30.512007080555023,50.41416631607499],[30.511096330444058,50.414442409074887],[30.511149383848579,50.414481850800669],[30.511591495552928,50.414487485330227],[30.511865604809628,50.414639617375421],[30.512714459281977,50.414881900735097]]]]}},
{"type":"Feature","properties":{"id":7,"section_nu":"3а ст."},"geometry":{"type":"MultiPolygon","coordinates":[[[[30.51273214375016,50.414881900735097],[30.51302393747503,50.414391698236336],[30.513952372054174,50.413986009573883],[30.514385641524438,50.41384514464243],[30.514748173122005,50.413867683059607],[30.513890476415561,50.41515235511487],[30.51273214375016,50.414881900735097]]]]}},
{"type":"Feature","properties":{"id":8,"section_nu":"4а ст."},"geometry":{"type":"MultiPolygon","coordinates":[[[[30.513943529820089,50.41516362401385],[30.514845437696962,50.415558033789516],[30.515420182912621,50.414718500465767],[30.515862294616969,50.414188854339351],[30.515765030042012,50.4135803174374],[30.51473933088792,50.413884586865471],[30.513943529820089,50.41516362401385]]]]}},
{"type":"Feature","properties":{"id":9,"section_nu":"5 ст."},"geometry":{"type":"MultiPolygon","coordinates":[[[[30.515791556744279,50.413315488752012],[30.517188629730036,50.413833875429823],[30.517498107923071,50.414448043609141],[30.516445882066716,50.415501689736892],[30.514367957056262,50.417253958407457],[30.513987740990522,50.417253958407457],[30.514836595462878,50.415580571391807],[30.51552628972167,50.414622713838973],[30.515888821319237,50.414200123467538],[30.515791556744279,50.413315488752012]]]]}}
]
}
